{
  "norad_id": 63324,
  "name": "STARLINK-33619",
  "history": [
    {
      "epoch": "2026-04-15T12:13:23.595168Z",
      "apogee_km": 483.8202277763785,
      "perigee_km": 482.1868646579451,
      "latitude_deg": -6.8386106458328574e-06,
      "longitude_deg": 155.44533355602965,
      "height_km": 482.6114127767344,
      "semi_major_axis_km": 6861.1405462171615,
      "eccentricity": 0.00011903,
      "inclination_deg": 42.9995,
      "raan_deg": 182.464,
      "arg_perigee_deg": 281.9144,
      "mean_anomaly_deg": 78.1574,
      "mean_motion_rev_day": 15.27595212
    },
    {
      "epoch": "2026-04-16T16:28:12.659232Z",
      "apogee_km": 483.6563618755663,
      "perigee_km": 482.41860599866413,
      "latitude_deg": -3.479911936922037e-06,
      "longitude_deg": 83.93494429992278,
      "height_km": 482.69839827671433,
      "semi_major_axis_km": 6861.174483937115,
      "eccentricity": 9.02e-05,
      "inclination_deg": 43.0014,
      "raan_deg": 175.8181,
      "arg_perigee_deg": 280.7576,
      "mean_anomaly_deg": 79.3174,
      "mean_motion_rev_day": 15.27583878
    },
    {
      "epoch": "2026-04-17T20:43:01.706880Z",
      "apogee_km": 483.9314146406914,
      "perigee_km": 482.1144422684383,
      "latitude_deg": 2.382165923799096e-06,
      "longitude_deg": 12.422325612470253,
      "height_km": 482.6490732901426,
      "semi_major_axis_km": 6861.159928454565,
      "eccentricity": 0.00013241,
      "inclination_deg": 43.0016,
      "raan_deg": 169.1699,
      "arg_perigee_deg": 279.5469,
      "mean_anomaly_deg": 80.5233,
      "mean_motion_rev_day": 15.27588739
    },
    {
      "epoch": "2026-04-18T20:15:21.957696Z",
      "apogee_km": 483.94305028211875,
      "perigee_km": 482.0082165195008,
      "latitude_deg": -5.5620842136846666e-05,
      "longitude_deg": 12.831574823094403,
      "height_km": 482.605703210074,
      "semi_major_axis_km": 6861.1126334008095,
      "eccentricity": 0.000141,
      "inclination_deg": 42.9969,
      "raan_deg": 163.6303,
      "arg_perigee_deg": 278.6984,
      "mean_anomaly_deg": 81.3707,
      "mean_motion_rev_day": 15.27604534
    },
    {
      "epoch": "2026-04-19T15:05:14.114976Z",
      "apogee_km": 483.9835886148485,
      "perigee_km": 481.912913086142,
      "latitude_deg": 7.109082002363154e-06,
      "longitude_deg": 85.16165088812059,
      "height_km": 482.67502467272516,
      "semi_major_axis_km": 6861.085250850495,
      "eccentricity": 0.0001509,
      "inclination_deg": 43.0009,
      "raan_deg": 159.201,
      "arg_perigee_deg": 272.7747,
      "mean_anomaly_deg": 87.2932,
      "mean_motion_rev_day": 15.27613679
    },
    {
      "epoch": "2026-04-20T09:55:07.558752Z",
      "apogee_km": 483.4740643547184,
      "perigee_km": 482.607634815874,
      "latitude_deg": 4.3283722478001245e-05,
      "longitude_deg": 157.4812229683129,
      "height_km": 482.94304430454724,
      "semi_major_axis_km": 6861.177849585296,
      "eccentricity": 6.314e-05,
      "inclination_deg": 42.9962,
      "raan_deg": 154.7666,
      "arg_perigee_deg": 253.0024,
      "mean_anomaly_deg": 107.0759,
      "mean_motion_rev_day": 15.27582754
    },
    {
      "epoch": "2026-04-21T09:27:28.456704Z",
      "apogee_km": 483.8434665443574,
      "perigee_km": 482.1715428514517,
      "latitude_deg": 1.0628364782182173e-06,
      "longitude_deg": 157.8919827467263,
      "height_km": 482.7906093493634,
      "semi_major_axis_km": 6861.144504697904,
      "eccentricity": 0.00012184,
      "inclination_deg": 42.9998,
      "raan_deg": 149.2312,
      "arg_perigee_deg": 269.549,
      "mean_anomaly_deg": 90.5222,
      "mean_motion_rev_day": 15.2759389
    },
    {
      "epoch": "2026-04-22T18:24:46.044576Z",
      "apogee_km": 484.0215218032954,
      "perigee_km": 481.9810192816367,
      "latitude_deg": -3.6531113011034544e-05,
      "longitude_deg": 14.457747342527917,
      "height_km": 482.54659178218145,
      "semi_major_axis_km": 6861.138270542466,
      "eccentricity": 0.0001487,
      "inclination_deg": 42.9966,
      "raan_deg": 141.4737,
      "arg_perigee_deg": 283.0905,
      "mean_anomaly_deg": 76.978,
      "mean_motion_rev_day": 15.27595972
    },
    {
      "epoch": "2026-04-22T18:24:46.045440Z",
      "apogee_km": 484.02117874638316,
      "perigee_km": 481.98136233854984,
      "latitude_deg": -4.0370874585270336e-05,
      "longitude_deg": 14.457739637311159,
      "height_km": 482.54666947132733,
      "semi_major_axis_km": 6861.138270542466,
      "eccentricity": 0.00014865,
      "inclination_deg": 42.9966,
      "raan_deg": 141.4737,
      "arg_perigee_deg": 283.0905,
      "mean_anomaly_deg": 76.978,
      "mean_motion_rev_day": 15.27595972
    },
    {
      "epoch": "2026-04-24T09:38:39.886656Z",
      "apogee_km": 484.07022299567507,
      "perigee_km": 482.12300489603695,
      "latitude_deg": -4.190160023219203e-06,
      "longitude_deg": 135.14135163477206,
      "height_km": 482.839728493788,
      "semi_major_axis_km": 6861.233613945856,
      "eccentricity": 0.0001419,
      "inclination_deg": 42.9992,
      "raan_deg": 132.2428,
      "arg_perigee_deg": 271.973,
      "mean_anomaly_deg": 88.0959,
      "mean_motion_rev_day": 15.27564131
    },
    {
      "epoch": "2026-04-25T09:11:01.254624Z",
      "apogee_km": 484.0259570509579,
      "perigee_km": 482.0115217258726,
      "latitude_deg": 4.0047822053073106e-05,
      "longitude_deg": 135.54844162706948,
      "height_km": 482.77877146392836,
      "semi_major_axis_km": 6861.155739388415,
      "eccentricity": 0.0001468,
      "inclination_deg": 43.0011,
      "raan_deg": 126.7056,
      "arg_perigee_deg": 270.9583,
      "mean_anomaly_deg": 89.1101,
      "mean_motion_rev_day": 15.27590138
    },
    {
      "epoch": "2026-04-26T16:34:08.574528Z",
      "apogee_km": 484.78662586386963,
      "perigee_km": 481.1237631849017,
      "latitude_deg": -1.9821986667924915e-06,
      "longitude_deg": 16.091246347058828,
      "height_km": 482.50836838699564,
      "semi_major_axis_km": 6861.092194524385,
      "eccentricity": 0.00026693,
      "inclination_deg": 43.0019,
      "raan_deg": 119.3179,
      "arg_perigee_deg": 277.0473,
      "mean_anomaly_deg": 83.0075,
      "mean_motion_rev_day": 15.2761136
    },
    {
      "epoch": "2026-04-27T16:06:29.668608Z",
      "apogee_km": 484.45629117031694,
      "perigee_km": 481.5265893263304,
      "latitude_deg": 5.4667344730119725e-05,
      "longitude_deg": 16.49599519615344,
      "height_km": 482.1959542952394,
      "semi_major_axis_km": 6861.128440248323,
      "eccentricity": 0.0002135,
      "inclination_deg": 42.9953,
      "raan_deg": 113.7772,
      "arg_perigee_deg": 292.9924,
      "mean_anomaly_deg": 67.0703,
      "mean_motion_rev_day": 15.27599255
    },
    {
      "epoch": "2026-04-28T01:31:26.332608Z",
      "apogee_km": 483.96590472598473,
      "perigee_km": 482.1287540099538,
      "latitude_deg": 1.037944558015449e-05,
      "longitude_deg": -127.33934243013401,
      "height_km": 482.9578226240371,
      "semi_major_axis_km": 6861.184329367969,
      "eccentricity": 0.00013388,
      "inclination_deg": 43.0003,
      "raan_deg": 111.5647,
      "arg_perigee_deg": 261.6219,
      "mean_anomaly_deg": 98.4481,
      "mean_motion_rev_day": 15.2758059
    },
    {
      "epoch": "2026-04-29T05:46:15.559968Z",
      "apogee_km": 483.8957587224377,
      "perigee_km": 482.1969297264086,
      "latitude_deg": -1.982895315851474e-05,
      "longitude_deg": 161.14844869688596,
      "height_km": 482.8989569408638,
      "semi_major_axis_km": 6861.183344224423,
      "eccentricity": 0.0001238,
      "inclination_deg": 42.9981,
      "raan_deg": 104.9177,
      "arg_perigee_deg": 264.8483,
      "mean_anomaly_deg": 95.2227,
      "mean_motion_rev_day": 15.27580919
    },
    {
      "epoch": "2026-04-30T08:26:54.876192Z",
      "apogee_km": 484.24527905785635,
      "perigee_km": 481.7210729451044,
      "latitude_deg": -1.7701196840854382e-05,
      "longitude_deg": 113.6135237950448,
      "height_km": 482.4268168062636,
      "semi_major_axis_km": 6861.12017600148,
      "eccentricity": 0.00018395,
      "inclination_deg": 43.001,
      "raan_deg": 98.6422,
      "arg_perigee_deg": 285.3228,
      "mean_anomaly_deg": 74.742,
      "mean_motion_rev_day": 15.27602015
    },
    {
      "epoch": "2026-05-02T07:31:36.079392Z",
      "apogee_km": 484.1352665892082,
      "perigee_km": 481.7476112924569,
      "latitude_deg": -3.664656022762869e-05,
      "longitude_deg": 114.42869188562224,
      "height_km": 482.8536977080207,
      "semi_major_axis_km": 6861.078438940833,
      "eccentricity": 0.000174,
      "inclination_deg": 43.0003,
      "raan_deg": 87.5625,
      "arg_perigee_deg": 263.4936,
      "mean_anomaly_deg": 96.5717,
      "mean_motion_rev_day": 15.27615954
    },
    {
      "epoch": "2026-05-03T07:03:57.494016Z",
      "apogee_km": 483.9887638164628,
      "perigee_km": 482.09178552356207,
      "latitude_deg": 5.46994068370752e-05,
      "longitude_deg": 114.83463532698785,
      "height_km": 482.811524102544,
      "semi_major_axis_km": 6861.177274670012,
      "eccentricity": 0.00013824,
      "inclination_deg": 43.001,
      "raan_deg": 82.0243,
      "arg_perigee_deg": 270.3349,
      "mean_anomaly_deg": 89.7345,
      "mean_motion_rev_day": 15.27582946
    },
    {
      "epoch": "2026-05-04T20:43:42.851424Z",
      "apogee_km": 483.8300687231331,
      "perigee_km": 482.2108355644277,
      "latitude_deg": 1.322539043522128e-05,
      "longitude_deg": -100.51455129896641,
      "height_km": 482.8605804072809,
      "semi_major_axis_km": 6861.15745214378,
      "eccentricity": 0.000118,
      "inclination_deg": 42.9997,
      "raan_deg": 73.1609,
      "arg_perigee_deg": 265.4902,
      "mean_anomaly_deg": 94.5815,
      "mean_motion_rev_day": 15.27589566
    }
  ]
}